{"type": "FeatureCollection", "features": [{"type": "Feature", "properties": {"name": "Anunas", "admin_level": 10, "city": "Angeles City", "province": "Pampanga", "source": "OpenStreetMap relation 21180548 (ODbL), 28 member ways stitched from `out geom` - unsimplified", "retrieved": "2026-08-24", "note": "Validates data/purok_coordinates.json - see tests/test_purok_coordinates.py"}, "geometry": {"type": "Polygon", "coordinates": [[[120.5234968, 15.1529646], [120.5268729, 15.1543119], [120.5280714, 15.1539207], [120.5289427, 15.1531803], [120.5319261, 15.1516199], [120.5326126, 15.1515908], [120.5330853, 15.1509975], [120.5351387, 15.1499505], [120.5371636, 15.1489953], [120.5399174, 15.150434], [120.5402662, 15.1506005], [120.5405042, 15.1506574], [120.5407569, 15.1506977], [120.5410499, 15.1507189], [120.5413479, 15.1507249], [120.5417408, 15.1507114], [120.5421541, 15.150669], [120.5428942, 15.1504898], [120.5434358, 15.1503505], [120.5440291, 15.1502508], [120.5443951, 15.1502387], [120.5446021, 15.1502384], [120.5448458, 15.1502392], [120.5452136, 15.1502773], [120.5454911, 15.1503287], [120.5456717, 15.1503675], [120.5458593, 15.1504198], [120.5460527, 15.1504859], [120.5463003, 15.1505755], [120.5466268, 15.1507046], [120.5469423, 15.1508461], [120.5470963, 15.150925], [120.547713, 15.1512797], [120.5479557, 15.1514951], [120.5481118, 15.1517267], [120.5483197, 15.1522663], [120.5485276, 15.1526601], [120.5487326, 15.1529086], [120.548982, 15.1531187], [120.549371, 15.1533026], [120.549924, 15.1534275], [120.5504304, 15.1534812], [120.5515229, 15.153485], [120.5521873, 15.153445], [120.5530456, 15.1531964], [120.5531561, 15.1531803], [120.5534048, 15.1529047], [120.5556334, 15.150545], [120.5559691, 15.1503166], [120.5577793, 15.1523707], [120.5580227, 15.152685], [120.5581006, 15.1527712], [120.5583392, 15.1530785], [120.5584247, 15.1531705], [120.5585817, 15.1530693], [120.5586165, 15.1530655], [120.55865, 15.1530708], [120.5589159, 15.152992], [120.5588854, 15.1529398], [120.5587857, 15.1527347], [120.5586452, 15.1525708], [120.558469, 15.1523546], [120.5586455, 15.1522095], [120.5594276, 15.1522028], [120.5594966, 15.1523802], [120.55961, 15.1526055], [120.5597309, 15.1527726], [120.5599523, 15.1530362], [120.5601375, 15.1532734], [120.5602403, 15.1534886], [120.5602845, 15.1537062], [120.5603023, 15.1539893], [120.5612934, 15.1538077], [120.5625691, 15.1538448], [120.5631042, 15.1539932], [120.5635934, 15.1543884], [120.5638034, 15.1545824], [120.5640975, 15.1551132], [120.5642445, 15.155388], [120.5642425, 15.1554728], [120.5642368, 15.1556321], [120.5642632, 15.15572], [120.5643083, 15.155779], [120.5643678, 15.1558622], [120.5643921, 15.1559033], [120.5644189, 15.1559717], [120.5644252, 15.155989], [120.5644224, 15.1560081], [120.5644646, 15.1560554], [120.5645494, 15.1561445], [120.5645948, 15.1562076], [120.5646672, 15.1563299], [120.5647765, 15.1564864], [120.564857, 15.1565941], [120.5647219, 15.1566388], [120.5644641, 15.1567468], [120.5641087, 15.1569173], [120.5638953, 15.1570062], [120.5636294, 15.1571502], [120.5633674, 15.1572669], [120.5633175, 15.1573004], [120.5632112, 15.1573614], [120.5631246, 15.1574252], [120.5630427, 15.1574727], [120.5629324, 15.1575146], [120.5627671, 15.1575796], [120.5627164, 15.1584754], [120.5635751, 15.1585082], [120.5635469, 15.1590188], [120.5635311, 15.1595879], [120.5634886, 15.1601137], [120.5634902, 15.1604589], [120.5639725, 15.160524], [120.5641558, 15.1606854], [120.5643855, 15.1606971], [120.5648056, 15.160734], [120.5653385, 15.1608128], [120.5662815, 15.1608342], [120.5668153, 15.160935], [120.5670491, 15.1610618], [120.5674637, 15.1611866], [120.5672361, 15.1615372], [120.5670401, 15.1617339], [120.5667345, 15.1618036], [120.5665669, 15.1618547], [120.5661635, 15.1621356], [120.565861, 15.1623018], [120.5652702, 15.1625832], [120.5647346, 15.1629166], [120.5642816, 15.1632386], [120.5641644, 15.1632695], [120.5638629, 15.1634336], [120.5634849, 15.1637078], [120.5632869, 15.1637161], [120.5630871, 15.1638782], [120.56291, 15.1640294], [120.5623881, 15.164463], [120.5621103, 15.1645225], [120.5619286, 15.1645904], [120.5617426, 15.1646057], [120.561511, 15.1645458], [120.5608865, 15.16481], [120.5605092, 15.1650083], [120.5601483, 15.1657779], [120.5600338, 15.1660407], [120.5573627, 15.1647092], [120.5552959, 15.1636789], [120.5543763, 15.1633066], [120.5534306, 15.1630191], [120.5525064, 15.1628349], [120.5515516, 15.1627314], [120.5483165, 15.162641], [120.5466514, 15.1625944], [120.5453396, 15.162488], [120.5447535, 15.1624577], [120.5445998, 15.1624492], [120.544082, 15.1624103], [120.5434806, 15.1623714], [120.5430373, 15.1623393], [120.542719, 15.1623111], [120.5422747, 15.1622732], [120.5415947, 15.1622051], [120.5408865, 15.1621312], [120.5401743, 15.1620418], [120.539458, 15.1619368], [120.5387468, 15.161823], [120.5380376, 15.1616947], [120.5373294, 15.1615527], [120.5366, 15.1613874], [120.5358747, 15.1611997], [120.5354657, 15.1610889], [120.5351705, 15.1609965], [120.5345882, 15.1608118], [120.5342498, 15.1606941], [120.5338992, 15.1605755], [120.5335476, 15.1604501], [120.5332051, 15.160311], [120.5327971, 15.1601409], [120.5324717, 15.159994], [120.532102, 15.1598268], [120.5317766, 15.1596722], [120.5313787, 15.1594777], [120.5310543, 15.1593085], [120.5307279, 15.1591267], [120.53034, 15.1589147], [120.5299703, 15.1586989], [120.5295754, 15.1584577], [120.5292299, 15.158238], [120.5288612, 15.157992], [120.5283272, 15.1576215], [120.5279837, 15.1573794], [120.5276372, 15.1571139], [120.5272967, 15.1568349], [120.5269511, 15.1565587], [120.5265915, 15.1562505], [120.5262329, 15.1559335], [120.5258682, 15.1555922], [120.5255468, 15.1552839], [120.5251952, 15.1549339], [120.5248638, 15.1545751], [120.5245364, 15.1542173], [120.5241747, 15.1538089], [120.5238655, 15.1534238], [120.5234968, 15.1529646]]]}}]}